{
  "type": "FeatureCollection",
  "features": [
    {
      "type": "Feature",
      "properties": {
        "norad_id": 40010,
        "name": "KAZEOSAT 2",
        "group": "resource",
        "lat": 13.207523559382437,
        "lon": -165.9166771842044,
        "alt_km": 619.7590709006854,
        "timestamp": "2025-12-17T19:34:07.701796+00:00",
        "meta_object_name": "KAZEOSAT 2",
        "meta_object_id": "2014-033A",
        "meta_epoch": "2025-12-17T06:34:23.314080",
        "meta_mean_motion": 14.85177135,
        "meta_eccentricity": 0.00079875,
        "meta_inclination": 97.5505,
        "meta_ra_of_asc_node": 195.3538,
        "meta_arg_of_pericenter": 190.6606,
        "meta_mean_anomaly": 169.4441,
        "meta_ephemeris_type": 0,
        "meta_classification_type": "U",
        "meta_norad_cat_id": 40010,
        "meta_element_set_no": 999,
        "meta_rev_at_epoch": 62195,
        "meta_bstar": 0.00012170671,
        "meta_mean_motion_dot": 9.93e-06,
        "meta_mean_motion_ddot": 0,
        "tle_line1": "1 40010U 14033A   25351.27388095  .00000993  00000+0  12171-3 0  9999",
        "tle_line2": "2 40010  97.5505 195.3538 0007987 190.6606 169.4441 14.85177135621955"
      },
      "geometry": {
        "type": "Point",
        "coordinates": [
          -165.9166771842044,
          13.207523559382437
        ]
      }
    },
    {
      "type": "Feature",
      "properties": {
        "norad_id": 40011,
        "name": "HODOYOSHI-4",
        "group": "resource",
        "lat": 36.19442819176071,
        "lon": 6.011222234624736,
        "alt_km": 590.7527741146732,
        "timestamp": "2025-12-17T19:34:07.701806+00:00",
        "meta_object_name": "HODOYOSHI-4",
        "meta_object_id": "2014-033B",
        "meta_epoch": "2025-12-17T07:37:28.160256",
        "meta_mean_motion": 14.8749663,
        "meta_eccentricity": 0.00234335,
        "meta_inclination": 97.5413,
        "meta_ra_of_asc_node": 179.9754,
        "meta_arg_of_pericenter": 185.1189,
        "meta_mean_anomaly": 174.9792,
        "meta_ephemeris_type": 0,
        "meta_classification_type": "U",
        "meta_norad_cat_id": 40011,
        "meta_element_set_no": 999,
        "meta_rev_at_epoch": 62176,
        "meta_bstar": 7.3248078e-05,
        "meta_mean_motion_dot": 6.15e-06,
        "meta_mean_motion_ddot": 0,
        "tle_line1": "1 40011U 14033B   25351.31768704  .00000615  00000+0  73248-4 0  9998",
        "tle_line2": "2 40011  97.5413 179.9754 0023433 185.1189 174.9792 14.87496630621766"
      },
      "geometry": {
        "type": "Point",
        "coordinates": [
          6.011222234624736,
          36.19442819176071
        ]
      }
    },
    {
      "type": "Feature",
      "properties": {
        "norad_id": 40013,
        "name": "DEIMOS-2",
        "group": "resource",
        "lat": 40.44170049661245,
        "lon": -139.0927975583544,
        "alt_km": 585.1643024942396,
        "timestamp": "2025-12-17T19:34:07.701841+00:00",
        "meta_object_name": "DEIMOS-2",
        "meta_object_id": "2014-033D",
        "meta_epoch": "2025-12-17T06:31:05.711232",
        "meta_mean_motion": 14.92990616,
        "meta_eccentricity": 0.00010974,
        "meta_inclination": 97.6064,
        "meta_ra_of_asc_node": 226.9216,
        "meta_arg_of_pericenter": 108.5412,
        "meta_mean_anomaly": 251.5928,
        "meta_ephemeris_type": 0,
        "meta_classification_type": "U",
        "meta_norad_cat_id": 40013,
        "meta_element_set_no": 999,
        "meta_rev_at_epoch": 61057,
        "meta_bstar": 0.00016495128,
        "meta_mean_motion_dot": 1.66e-05,
        "meta_mean_motion_ddot": 0,
        "tle_line1": "1 40013U 14033D   25351.27159388  .00001660  00000+0  16495-3 0  9998",
        "tle_line2": "2 40013  97.6064 226.9216 0001097 108.5412 251.5928 14.92990616610576"
      },
      "geometry": {
        "type": "Point",
        "coordinates": [
          -139.0927975583544,
          40.44170049661245
        ]
      }
    },
    {
      "type": "Feature",
      "properties": {
        "norad_id": 40015,
        "name": "HODOYOSHI-3",
        "group": "resource",
        "lat": 20.010149439560518,
        "lon": 154.63507785185396,
        "alt_km": 633.5851498593056,
        "timestamp": "2025-12-17T19:34:07.701862+00:00",
        "meta_object_name": "HODOYOSHI-3",
        "meta_object_id": "2014-033F",
        "meta_epoch": "2025-12-17T08:09:22.329792",
        "meta_mean_motion": 14.84822615,
        "meta_eccentricity": 0.00320717,
        "meta_inclination": 97.6202,
        "meta_ra_of_asc_node": 156.9749,
        "meta_arg_of_pericenter": 232.2131,
        "meta_mean_anomaly": 127.6179,
        "meta_ephemeris_type": 0,
        "meta_classification_type": "U",
        "meta_norad_cat_id": 40015,
        "meta_element_set_no": 999,
        "meta_rev_at_epoch": 62063,
        "meta_bstar": 0.00017733416,
        "meta_mean_motion_dot": 1.467e-05,
        "meta_mean_motion_ddot": 0,
        "tle_line1": "1 40015U 14033F   25351.33984178  .00001467  00000+0  17733-3 0  9991",
        "tle_line2": "2 40015  97.6202 156.9749 0032071 232.2131 127.6179 14.84822615620637"
      },
      "geometry": {
        "type": "Point",
        "coordinates": [
          154.63507785185396,
          20.010149439560518
        ]
      }
    },
    {
      "type": "Feature",
      "properties": {
        "norad_id": 40053,
        "name": "SPOT 7",
        "group": "resource",
        "lat": 23.337916299474397,
        "lon": 50.25536322026545,
        "alt_km": 689.770197219761,
        "timestamp": "2025-12-17T19:34:07.701874+00:00",
        "meta_object_name": "SPOT 7",
        "meta_object_id": "2014-034A",
        "meta_epoch": "2025-12-17T07:57:11.875680",
        "meta_mean_motion": 14.60739789,
        "meta_eccentricity": 0.00015386,
        "meta_inclination": 98.0906,
        "meta_ra_of_asc_node": 53.3012,
        "meta_arg_of_pericenter": 84.6789,
        "meta_mean_anomaly": 275.4587,
        "meta_ephemeris_type": 0,
        "meta_classification_type": "U",
        "meta_norad_cat_id": 40053,
        "meta_element_set_no": 999,
        "meta_rev_at_epoch": 61058,
        "meta_bstar": 9.0168867e-05,
        "meta_mean_motion_dot": 3.94e-06,
        "meta_mean_motion_ddot": 0,
        "tle_line1": "1 40053U 14034A   25351.33138745  .00000394  00000+0  90169-4 0  9998",
        "tle_line2": "2 40053  98.0906  53.3012 0001538  84.6789 275.4587 14.60739789610581"
      },
      "geometry": {
        "type": "Point",
        "coordinates": [
          50.25536322026545,
          23.337916299474397
        ]
      }
    },
    {
      "type": "Feature",
      "properties": {
        "norad_id": 40072,
        "name": "SKYSAT-B",
        "group": "resource",
        "lat": 79.7773793531549,
        "lon": -118.85730622683445,
        "alt_km": 596.0209650932438,
        "timestamp": "2025-12-17T19:34:07.701885+00:00",
        "meta_object_name": "SKYSAT-B",
        "meta_object_id": "2014-037D",
        "meta_epoch": "2025-12-17T07:53:23.701920",
        "meta_mean_motion": 14.87343968,
        "meta_eccentricity": 0.00064355,
        "meta_inclination": 98.3616,
        "meta_ra_of_asc_node": 295.2771,
        "meta_arg_of_pericenter": 136.9022,
        "meta_mean_anomaly": 223.2697,
        "meta_ephemeris_type": 0,
        "meta_classification_type": "U",
        "meta_norad_cat_id": 40072,
        "meta_element_set_no": 999,
        "meta_rev_at_epoch": 61892,
        "meta_bstar": 0.00017376001,
        "meta_mean_motion_dot": 1.509e-05,
        "meta_mean_motion_ddot": 0,
        "tle_line1": "1 40072U 14037D   25351.32874655  .00001509  00000+0  17376-3 0  9995",
        "tle_line2": "2 40072  98.3616 295.2771 0006435 136.9022 223.2697 14.87343968618922"
      },
      "geometry": {
        "type": "Point",
        "coordinates": [
          -118.85730622683445,
          79.7773793531549
        ]
      }
    },
    {
      "type": "Feature",
      "properties": {
        "norad_id": 40115,
        "name": "WORLDVIEW-3 (WV-3)",
        "group": "resource",
        "lat": -57.609672157447434,
        "lon": 76.61121594801577,
        "alt_km": 621.501572015889,
        "timestamp": "2025-12-17T19:34:07.701895+00:00",
        "meta_object_name": "WORLDVIEW-3 (WV-3)",
        "meta_object_id": "2014-048A",
        "meta_epoch": "2025-12-17T06:53:57.177312",
        "meta_mean_motion": 14.85523011,
        "meta_eccentricity": 0.00051298,
        "meta_inclination": 97.8612,
        "meta_ra_of_asc_node": 63.5105,
        "meta_arg_of_pericenter": 170.1438,
        "meta_mean_anomaly": 189.9878,
        "meta_ephemeris_type": 0,
        "meta_classification_type": "U",
        "meta_norad_cat_id": 40115,
        "meta_element_set_no": 999,
        "meta_rev_at_epoch": 61491,
        "meta_bstar": 0.00011844001,
        "meta_mean_motion_dot": 9.69e-06,
        "meta_mean_motion_ddot": 0,
        "tle_line1": "1 40115U 14048A   25351.28746733  .00000969  00000+0  11844-3 0  9998",
        "tle_line2": "2 40115  97.8612  63.5105 0005129 170.1438 189.9878 14.85523011614918"
      },
      "geometry": {
        "type": "Point",
        "coordinates": [
          76.61121594801577,
          -57.609672157447434
        ]
      }
    }
  ]
}